KUIPER-00071            
1 64818U 25151C   25349.31116203  .00004236  00000+0  58413-3 0  9999
2 64818  51.9014 316.1984 0007256 314.1278  45.9087 14.79947215 22777
KUIPER-00072            
1 64819U 25151D   25349.26527400  .00002577  00000+0  39495-3 0  9994
2 64819  51.8989 296.0603 0002154 325.5284  34.5536 14.76726525 23058
KUIPER-00073            
1 64820U 25151E   25349.34493699  .00000539  00000+0  10001-3 0  9995
2 64820  51.9009 316.0443 0013205 338.0972  21.9425 14.79944391 23964
KUIPER-00074            
1 64821U 25151F   25349.08831280 -.00001434  00000+0 -15839-3 0  9990
2 64821  51.9018 304.6957 0013354 353.0079   7.0696 14.79922027 22919
KUIPER-00075            
1 64822U 25151G   25349.17560661  .00014105  00000+0  36125-3 0  9991
2 64822  51.8746 272.3164 0003607   7.2501 352.8538 15.39651140 23375
KUIPER-00076            
1 64823U 25151H   25349.28822680 -.00000783  00000+0 -73661-4 0  9992
2 64823  51.9014 306.3059 0005280 351.4245   8.6626 14.79873480 22913
KUIPER-00077            
1 64824U 25151J   25349.28280971 -.00002726  00000+0 -32837-3 0  9992
2 64824  51.9025 311.3348 0006145 310.2574  49.7850 14.79943313 22842
KUIPER-00078            
1 64825U 25151K   25349.11683929  .00015462  00000+0  20531-2 0  9991
2 64825  51.9029 309.5617 0008414  10.4174 349.6962 14.79904388 22857
